{"type": "FeatureCollection", "features": [ {"type": "Feature", "properties": {"norad_id": 37966, "name": "COSMOS 2251 DEB", "group": "cosmos-2251-debris", "lat": -67.81804604591969, "lon": -159.46239395268734, "alt_km": 544.169858088404, "timestamp": "2025-12-05T14:45:15.695480+00:00", "meta": {"OBJECT_NAME": "COSMOS 2251 DEB", "OBJECT_ID": "1993-036BPR", "EPOCH": "2025-12-04T00:57:24.425856", "MEAN_MOTION": 15.1122342, "ECCENTRICITY": 0.0008631, "INCLINATION": 73.977, "RA_OF_ASC_NODE": 248.6217, "ARG_OF_PERICENTER": 122.4784, "MEAN_ANOMALY": 237.7244, "EPHEMERIS_TYPE": 0, "CLASSIFICATION_TYPE": "U", "NORAD_CAT_ID": 37966, "ELEMENT_SET_NO": 999, "REV_AT_EPOCH": 85211, "BSTAR": 0.0061628837, "MEAN_MOTION_DOT": 0.00105178, "MEAN_MOTION_DDOT": 0}, "tle": {"line1": "1 37966U 93036BPR 25338.03986604  .00105178  00000+0  61629-2 0  9996", "line2": "2 37966  73.9770 248.6217 0008631 122.4784 237.7244 15.11223420852119"}}, "geometry": {"type": "Point", "coordinates": [-159.46239395268734, -67.81804604591969]}}, {"type": "Feature", "properties": {"norad_id": 37967, "name": "COSMOS 2251 DEB", "group": "cosmos-2251-debris", "lat": -9.638654981917226, "lon": 147.7909176049984, "alt_km": 704.697347896411, "timestamp": "2025-12-05T14:45:15.695491+00:00", "meta": {"OBJECT_NAME": "COSMOS 2251 DEB", "OBJECT_ID": "1993-036BPS", "EPOCH": "2025-12-04T05:27:45.885024", "MEAN_MOTION": 14.40381703, "ECCENTRICITY": 0.0150733, "INCLINATION": 74.0136, "RA_OF_ASC_NODE": 153.1499, "ARG_OF_PERICENTER": 293.7669, "MEAN_ANOMALY": 64.774, "EPHEMERIS_TYPE": 0, "CLASSIFICATION_TYPE": "U", "NORAD_CAT_ID": 37967, "ELEMENT_SET_NO": 999, "REV_AT_EPOCH": 64613, "BSTAR": 0.0030035, "MEAN_MOTION_DOT": 0.00010892, "MEAN_MOTION_DDOT": 0}, "tle": {"line1": "1 37967U 93036BPS 25338.22761441  .00010892  00000+0  30035-2 0  9993", "line2": "2 37967  74.0136 153.1499 0150733 293.7669  64.7740 14.40381703646137"}}, "geometry": {"type": "Point", "coordinates": [147.7909176049984, -9.638654981917226]}}, {"type": "Feature", "properties": {"norad_id": 37968, "name": "COSMOS 2251 DEB", "group": "cosmos-2251-debris", "lat": 39.90528489041644, "lon": -60.431582900770415, "alt_km": 506.5295797849594, "timestamp": "2025-12-05T14:45:15.695501+00:00", "meta": {"OBJECT_NAME": "COSMOS 2251 DEB", "OBJECT_ID": "1993-036BPT", "EPOCH": "2025-12-03T03:21:20.781504", "MEAN_MOTION": 15.00197638, "ECCENTRICITY": 0.00808241, "INCLINATION": 74.0001, "RA_OF_ASC_NODE": 290.7252, "ARG_OF_PERICENTER": 48.8285, "MEAN_ANOMALY": 311.9836, "EPHEMERIS_TYPE": 0, "CLASSIFICATION_TYPE": "U", "NORAD_CAT_ID": 37968, "ELEMENT_SET_NO": 999, "REV_AT_EPOCH": 60075, "BSTAR": 0.0013441412, "MEAN_MOTION_DOT": 0.00018013, "MEAN_MOTION_DDOT": 0}, "tle": {"line1": "1 37968U 93036BPT 25337.13982386  .00018013  00000+0  13441-2 0  9991", "line2": "2 37968  74.0001 290.7252 0080824  48.8285 311.9836 15.00197638600750"}}, "geometry": {"type": "Point", "coordinates": [-60.431582900770415, 39.90528489041644]}}, {"type": "Feature", "properties": {"norad_id": 37971, "name": "COSMOS 2251 DEB", "group": "cosmos-2251-debris", "lat": -29.14034244835006, "lon": -115.66355147942627, "alt_km": 689.4132475828937, "timestamp": "2025-12-05T14:45:15.695512+00:00", "meta": {"OBJECT_NAME": "COSMOS 2251 DEB", "OBJECT_ID": "1993-036BPW", "EPOCH": "2025-12-03T12:03:21.948768", "MEAN_MOTION": 14.48378174, "ECCENTRICITY": 0.00684434, "INCLINATION": 73.9938, "RA_OF_ASC_NODE": 59.093, "ARG_OF_PERICENTER": 199.3195, "MEAN_ANOMALY": 160.5369, "EPHEMERIS_TYPE": 0, "CLASSIFICATION_TYPE": "U", "NORAD_CAT_ID": 37971, "ELEMENT_SET_NO": 999, "REV_AT_EPOCH": 60544, "BSTAR": 0.0031797181, "MEAN_MOTION_DOT": 0.00012254, "MEAN_MOTION_DDOT": 0}, "tle": {"line1": "1 37971U 93036BPW 25337.50233737  .00012254  00000+0  31797-2 0  9990", "line2": "2 37971  73.9938  59.0930 0068443 199.3195 160.5369 14.48378174605442"}}, "geometry": {"type": "Point", "coordinates": [-115.66355147942627, -29.14034244835006]}}, {"type": "Feature", "properties": {"norad_id": 37975, "name": "COSMOS 2251 DEB", "group": "cosmos-2251-debris", "lat": 56.46709052059864, "lon": 132.39603623027963, "alt_km": 698.4874742735146, "timestamp": "2025-12-05T14:45:15.695522+00:00", "meta": {"OBJECT_NAME": "COSMOS 2251 DEB", "OBJECT_ID": "1993-036BQA", "EPOCH": "2025-11-29T10:05:48.736608", "MEAN_MOTION": 14.74991313, "ECCENTRICITY": 0.00977788, "INCLINATION": 74.0026, "RA_OF_ASC_NODE": 350.1763, "ARG_OF_PERICENTER": 342.2584, "MEAN_ANOMALY": 17.5181, "EPHEMERIS_TYPE": 0, "CLASSIFICATION_TYPE": "U", "NORAD_CAT_ID": 37975, "ELEMENT_SET_NO": 999, "REV_AT_EPOCH": 69549, "BSTAR": 0.0028756754, "MEAN_MOTION_DOT": 0.00020929, "MEAN_MOTION_DDOT": 0}, "tle": {"line1": "1 37975U 93036BQA 25333.42070297  .00020929  00000+0  28757-2 0  9991", "line2": "2 37975  74.0026 350.1763 0097778 342.2584  17.5181 14.74991313695491"}}, "geometry": {"type": "Point", "coordinates": [132.39603623027963, 56.46709052059864]}}, {"type": "Feature", "properties": {"norad_id": 37978, "name": "COSMOS 2251 DEB", "group": "cosmos-2251-debris", "lat": 46.43620992925605, "lon": 122.82077273217381, "alt_km": 327.50086857231236, "timestamp": "2025-12-05T14:45:15.695532+00:00", "meta": {"OBJECT_NAME": "COSMOS 2251 DEB", "OBJECT_ID": "1993-036BQD", "EPOCH": "2025-11-19T05:08:53.100672", "MEAN_MOTION": 15.61137081, "ECCENTRICITY": 0.00148985, "INCLINATION": 74.0238, "RA_OF_ASC_NODE": 142.2198, "ARG_OF_PERICENTER": 140.9849, "MEAN_ANOMALY": 219.2448, "EPHEMERIS_TYPE": 0, "CLASSIFICATION_TYPE": "U", "NORAD_CAT_ID": 37978, "ELEMENT_SET_NO": 999, "REV_AT_EPOCH": 8032, "BSTAR": 0.0043958825, "MEAN_MOTION_DOT": 0.0039117, "MEAN_MOTION_DDOT": 0}, "tle": {"line1": "1 37978U 93036BQD 25323.21450348  .00391170  00000+0  43959-2 0  9999", "line2": "2 37978  74.0238 142.2198 0014898 140.9849 219.2448 15.61137081 80328"}}, "geometry": {"type": "Point", "coordinates": [122.82077273217381, 46.43620992925605]}}, {"type": "Feature", "properties": {"norad_id": 37985, "name": "COSMOS 2251 DEB", "group": "cosmos-2251-debris", "lat": 37.80604974034318, "lon": 85.97398235126461, "alt_km": 771.9569479211086, "timestamp": "2025-12-05T14:45:15.695542+00:00", "meta": {"OBJECT_NAME": "COSMOS 2251 DEB", "OBJECT_ID": "1993-036BQL", "EPOCH": "2025-12-04T02:58:50.123136", "MEAN_MOTION": 14.35478479, "ECCENTRICITY": 0.00205167, "INCLINATION": 74.0252, "RA_OF_ASC_NODE": 281.5497, "ARG_OF_PERICENTER": 46.9624, "MEAN_ANOMALY": 313.3243, "EPHEMERIS_TYPE": 0, "CLASSIFICATION_TYPE": "U", "NORAD_CAT_ID": 37985, "ELEMENT_SET_NO": 999, "REV_AT_EPOCH": 64793, "BSTAR": 0.00010075187, "MEAN_MOTION_DOT": 2.64e-06, "MEAN_MOTION_DDOT": 0}, "tle": {"line1": "1 37985U 93036BQL 25338.12419124  .00000264  00000+0  10075-3 0  9995", "line2": "2 37985  74.0252 281.5497 0020516  46.9624 313.3243 14.35478479647935"}}, "geometry": {"type": "Point", "coordinates": [85.97398235126461, 37.80604974034318]}}, {"type": "Feature", "properties": {"norad_id": 37988, "name": "COSMOS 2251 DEB", "group": "cosmos-2251-debris", "lat": 6.300874194405175, "lon": 39.60063954817363, "alt_km": 652.1989576407741, "timestamp": "2025-12-05T14:45:15.695553+00:00", "meta": {"OBJECT_NAME": "COSMOS 2251 DEB", "OBJECT_ID": "1993-036BQP", "EPOCH": "2025-12-03T03:52:26.933376", "MEAN_MOTION": 14.68713906, "ECCENTRICITY": 0.00633293, "INCLINATION": 74.0639, "RA_OF_ASC_NODE": 42.5299, "ARG_OF_PERICENTER": 83.2268, "MEAN_ANOMALY": 277.6103, "EPHEMERIS_TYPE": 0, "CLASSIFICATION_TYPE": "U", "NORAD_CAT_ID": 37988, "ELEMENT_SET_NO": 999, "REV_AT_EPOCH": 23255, "BSTAR": 0.001359236, "MEAN_MOTION_DOT": 8.141e-05, "MEAN_MOTION_DDOT": 0}, "tle": {"line1": "1 37988U 93036BQP 25337.16142284  .00008141  00000+0  13592-2 0  9999", "line2": "2 37988  74.0639  42.5299 0063329  83.2268 277.6103 14.68713906232557"}}, "geometry": {"type": "Point", "coordinates": [39.60063954817363, 6.300874194405175]}}, {"type": "Feature", "properties": {"norad_id": 37993, "name": "COSMOS 2251 DEB", "group": "cosmos-2251-debris", "lat": 14.204684786144227, "lon": -175.32157996084305, "alt_km": 698.4703940226927, "timestamp": "2025-12-05T14:45:15.695563+00:00", "meta": {"OBJECT_NAME": "COSMOS 2251 DEB", "OBJECT_ID": "1993-036BQU", "EPOCH": "2025-12-03T19:55:21.764064", "MEAN_MOTION": 14.59748626, "ECCENTRICITY": 0.00218643, "INCLINATION": 74.0235, "RA_OF_ASC_NODE": 183.9251, "ARG_OF_PERICENTER": 273.6547, "MEAN_ANOMALY": 86.2118, "EPHEMERIS_TYPE": 0, "CLASSIFICATION_TYPE": "U", "NORAD_CAT_ID": 37993, "ELEMENT_SET_NO": 999, "REV_AT_EPOCH": 65187, "BSTAR": 0.0022910126, "MEAN_MOTION_DOT": 0.00010959, "MEAN_MOTION_DDOT": 0}, "tle": {"line1": "1 37993U 93036BQU 25337.83011301  .00010959  00000+0  22910-2 0  9998", "line2": "2 37993  74.0235 183.9251 0021864 273.6547  86.2118 14.59748626651873"}}, "geometry": {"type": "Point", "coordinates": [-175.32157996084305, 14.204684786144227]}}, {"type": "Feature", "properties": {"norad_id": 37994, "name": "COSMOS 2251 DEB", "group": "cosmos-2251-debris", "lat": -71.4779216127537, "lon": 167.5429685847304, "alt_km": 772.0537936469073, "timestamp": "2025-12-05T14:45:15.695573+00:00", "meta": {"OBJECT_NAME": "COSMOS 2251 DEB", "OBJECT_ID": "1993-036BQV", "EPOCH": "2025-12-04T14:11:52.594944", "MEAN_MOTION": 14.39592781, "ECCENTRICITY": 0.0022549, "INCLINATION": 74.0358, "RA_OF_ASC_NODE": 290.7346, "ARG_OF_PERICENTER": 11.8946, "MEAN_ANOMALY": 348.2736, "EPHEMERIS_TYPE": 0, "CLASSIFICATION_TYPE": "U", "NORAD_CAT_ID": 37994, "ELEMENT_SET_NO": 999, "REV_AT_EPOCH": 76947, "BSTAR": 0.00070112, "MEAN_MOTION_DOT": 2.171e-05, "MEAN_MOTION_DDOT": 0}, "tle": {"line1": "1 37994U 93036BQV 25338.59158096  .00002171  00000+0  70112-3 0  9991", "line2": "2 37994  74.0358 290.7346 0022549  11.8946 348.2736 14.39592781769478"}}, "geometry": {"type": "Point", "coordinates": [167.5429685847304, -71.4779216127537]}}]}